{
  "norad_id": 41771,
  "name": "SKYSAT-C4",
  "history": [
    {
      "epoch": "2026-03-28T19:37:42.003264Z",
      "apogee_km": 430.0398661413046,
      "perigee_km": 426.58586509249835,
      "latitude_deg": 3.144546526978053e-05,
      "longitude_deg": -7.5917603365009025,
      "height_km": 432.55776100156265,
      "semi_major_axis_km": 6806.449865616901,
      "eccentricity": 0.00025373,
      "inclination_deg": 96.9265,
      "raan_deg": 113.0661,
      "arg_perigee_deg": 129.9437,
      "mean_anomaly_deg": 230.2037,
      "mean_motion_rev_day": 15.46043777
    },
    {
      "epoch": "2026-03-29T03:23:42.631296Z",
      "apogee_km": 430.01041005797924,
      "perigee_km": 426.5377791175215,
      "latitude_deg": -4.461106409893775e-05,
      "longitude_deg": -124.10414077818987,
      "height_km": 432.52107111330236,
      "semi_major_axis_km": 6806.41109458775,
      "eccentricity": 0.0002551,
      "inclination_deg": 96.9263,
      "raan_deg": 113.3753,
      "arg_perigee_deg": 129.7757,
      "mean_anomaly_deg": 230.3718,
      "mean_motion_rev_day": 15.46056987
    }
  ]
}